#aV2021 11 21  0  0  0.00000000     288 DD+AD WGS84 FIT  NGA
## 2185      0.00000000   300.00000000 59539 0.0000000000000
+   32     1  2  3  4  5  6  7  8  9 10 11 12 13 14 15 16 17
+         18 19 20 21 22 23 24 25 26 27 28 29 30 31 32  0  0
+          0  0  0  0  0  0  0  0  0  0  0  0  0  0  0  0  0
+          0  0  0  0  0  0  0  0  0  0  0  0  0  0  0  0  0
+          0  0  0  0  0  0  0  0  0  0  0  0  0  0  0  0  0
++         2  2  2  2  2  2  2  2  2  2  2  2  2  2  2  2  2
++         2  2  2  2  2  2  2  2  2  2  2  2  2  2  2  0  0
++         0  0  0  0  0  0  0  0  0  0  0  0  0  0  0  0  0
++         0  0  0  0  0  0  0  0  0  0  0  0  0  0  0  0  0
++         0  0  0  0  0  0  0  0  0  0  0  0  0  0  0  0  0
%c cc cc ccc ccc cccc cccc cccc cccc ccccc ccccc ccccc ccccc
%c cc cc ccc ccc cccc cccc cccc cccc ccccc ccccc ccccc ccccc
%f  0.0000000  0.000000000  0.00000000000  0.000000000000000
%f  0.0000000  0.000000000  0.00000000000  0.000000000000000
%i    0    0    0    0      0      0      0      0         0
%i    0    0    0    0      0      0      0      0         0
/*      NGA, ST. LOUIS,MO.                                  
/*   EPHEMERIS COMPUTED FROM 2 DAYS OF DATA                 
/*   EPOCHA v7 SMOOTHER                                     
/*   G2139 IERS2010 SATIGS SATCOM                           
*  2021 11 21  5 15  0.00000000
P  1  14162.254961  -3227.118633  21960.025627    505.072203                    
V  1   6212.348496  27796.820879    403.340293     -0.104181                    
P  2 -14333.112402 -18494.941408 -11821.818735   -642.837004                    
V  2  -2380.794822 -16095.431338  26687.240753     -0.014939                    
P  3  21882.783212 -10777.310828  10281.389254    -18.958591                    
V  3  -8118.752840  10692.057306  28296.817538     -0.100260                    
P  4  23354.471285  -1317.232633 -12650.196798   -201.333117                    
V  4  14429.318191   7355.870927  25797.923719      0.009743                    
P  5 -17427.000353  -2482.418229 -20098.260184    -61.778614                    
V  5  16973.749324 -18547.648109 -12380.463241     -0.012827                    
P  6  -5478.651585 -25950.771679    575.531156    123.024737                    
V  6   2162.159425    177.411975  32328.875967      0.093482                    
P  7   7569.713082 -19095.447049 -16189.100697    280.909566                    
V  7   7063.112334  20431.810655 -20818.771408      0.051703                    
P  8  25973.449495   6067.061278   1883.636019    -45.005992                    
V  8   1634.864398   2951.718500 -31523.467151     -0.015233                    
P  9  14547.919734 -10397.380290 -19722.175618   -361.538117                    
V  9  23589.835170   8063.155376  13170.263347      0.003694                    
P 10  -7251.626045  20712.384932  14873.553729   -250.855602                    
V 10 -15053.159858  11376.010914 -23661.590658     -0.085742                    
P 11 -11903.104650 -20576.826474 -11872.635354     18.290035                    
V 11   -223.587446 -15235.674315  26628.741129     -0.019955                    
P 12 -22386.487196   8007.960705  11444.507189   -129.405978                    
V 12  10212.609280 -11158.374457  27314.363004     -0.055520                    
P 13 -22644.113701 -13485.976357  -4059.932654    217.748258                    
V 13   5493.135151   -123.324948 -31259.995014      0.057181                    
P 14   8279.578810 -20614.442623  14513.148401    -42.007871                    
V 14  15502.545317 -10292.809236 -23517.138683     -0.067355                    
P 15 -26441.690290  -3326.902562   1796.182925   -104.922385                    
V 15  -2081.648492  -3965.124552 -30715.324186      0.028206                    
P 16  15134.534979   6552.352954 -21164.203299   -427.694395                    
V 16 -20386.557264  16405.861359  -9162.929267     -0.064097                    
P 17    597.152731 -15514.546149  21988.263573    536.653965                    
V 17  25235.897345   9083.878762   5865.040655      0.054077                    
P 18  -6913.816383  20106.376495 -15859.433787    292.317493                    
V 18  -5866.789746 -19358.470418 -22088.488399     -0.059985                    
P 19  -9051.553399 -17060.062203  18046.901995     82.013257                    
V 19  21955.242272   8028.084482  18169.640409      0.050030                    
P 20  -9876.698073 -12525.430468 -21280.438222    518.018307                    
V 20  17047.100188 -20973.625926   4175.134522     -0.001918                    
P 21  16905.198471   6046.911421  20432.357278    151.617438                    
V 21   6576.150282  23390.723163 -12230.332181      0.011021                    
P 22  20085.253816  -4157.624739  16932.472909   -459.820054                    
V 22 -12281.382473  17587.381059  19287.013993      0.090613                    
P 23 -16278.281971  20421.711015   4561.259807     30.558779                    
V 23  -6021.442472   2188.636124 -31230.172122     -0.043555                    
P 24 -16350.382367  -1180.169411  20680.902493    269.063862                    
V 24  -7346.017481 -25919.066071  -6780.842962      0.035683                    
P 25 -20099.682520  16984.150906   1971.423494    243.854903                    
V 25    -60.479652  -4222.080956  31766.858591      0.059097                    
P 26   3900.085445  16979.908916 -20034.432927    157.423802                    
V 26 -18732.185129  17286.501462  11335.712970      0.037703                    
P 27  22215.191830  12597.565719  -8157.637736   -221.743192                    
V 27 -10106.536150  -1114.298137 -29547.959590     -0.046190                    
P 28   1696.086956 -18355.364658  19740.131874    458.670599                    
V 28  19425.663961 -13805.628719 -14709.742076     -0.075640                    
P 29 -18459.641362   5865.752126 -18241.238890   -443.479722                    
V 29 -21011.898315  -9439.977540  18204.845322     -0.051912                    
P 30    612.551210 -25234.992492  -7792.514028   -493.106899                    
V 30   5522.680955   9154.518241 -29196.075595     -0.031421                    
P 31   6683.752132  25360.781491  -2084.604111   -151.206691                    
V 31  -2793.791891   3175.224351  31804.269370     -0.019033                    
P 32   4539.490296  16440.087279  20521.774699    -24.671724                    
V 32 -24938.021816  -6527.514338  10625.832052     -0.048854                    
EOF
